{"type":"FeatureCollection","metadata":{"release":"lbn-satlas-screening-2024-01-v1","data_mode":"ai-screening-experiment","release_status":"share-with-caveats","evidence_scope":"commercial, industrial, and utility-scale solar-farm screening","not_rooftop_inventory":true,"not_panel_level_detection":true,"not_national_capacity_inventory":true,"source_dataset":"Satlas renewable energy infrastructure 2024-01 solar snapshot","source_license":"ODC-BY 1.0","source_attribution":"Contains information from Satlas, made available under the ODC Attribution License.","source_model_imagery":"Copernicus Sentinel-2","source_model_imagery_resolution_m":10,"source_validation_reference_asia_precision":0.97,"source_validation_reference_asia_recall":0.779,"source_validation_reference_scope":"Satlas 2022-10 continental validation; not a Lebanon-specific probability","independent_review_imagery":"Copernicus Sentinel-2 L2A via Element 84 Earth Search","independent_review_date":"2024-03-30","independent_review_resolution_m":10,"corroboration_source":"OpenStreetMap contributors via Overpass API","corroboration_license":"ODbL 1.0","corroboration_attribution":"© OpenStreetMap contributors","country_and_admin_boundaries":"Natural Earth 1:10m","country_and_admin_boundary_license":"Public domain","grid_size_m":5000,"privacy":"coarse-screening-grid","exact_source_geometries_public":false,"candidate_count":21,"corroborated_candidate_count":2,"candidate_footprint_area_m2":73342.161,"capacity_estimate_emitted":false,"technical_yield_estimate_emitted":false,"manual_review":"All candidates received 10 m visual context review; none was promoted to panel-level detected evidence."},"features":[{"type":"Feature","id":"lbn-satlas-5km-710000-3695000","geometry":{"type":"Polygon","coordinates":[[[35.2573473108973,33.373763431290996],[35.311056054147045,33.37277464760097],[35.31224969152873,33.41783684910502],[35.25851326641372,33.41882731693751],[35.2573473108973,33.373763431290996]]]},"properties":{"id":"lbn-satlas-5km-710000-3695000","evidence_status":"screened","candidate_count":1,"corroborated_candidate_count":0,"candidate_footprint_area_m2":1808.71,"governorates":["South Lebanon"],"region_groups":["South"],"source_snapshot":"2024-01","review_imagery_date":"2024-03-30","review_imagery_resolution_m":10,"grid_size_m":5000}},{"type":"Feature","id":"lbn-satlas-5km-715000-3695000","geometry":{"type":"Polygon","coordinates":[[[35.311056054147045,33.37277464760097],[35.36476214418674,33.37176265437199],[35.365983457867905,33.416823132241106],[35.31224969152873,33.41783684910502],[35.311056054147045,33.37277464760097]]]},"properties":{"id":"lbn-satlas-5km-715000-3695000","evidence_status":"screened","candidate_count":1,"corroborated_candidate_count":0,"candidate_footprint_area_m2":1491.721,"governorates":["South Lebanon"],"region_groups":["South"],"source_snapshot":"2024-01","review_imagery_date":"2024-03-30","review_imagery_resolution_m":10,"grid_size_m":5000}},{"type":"Feature","id":"lbn-satlas-5km-715000-3700000","geometry":{"type":"Polygon","coordinates":[[[35.31224969152873,33.41783684910502],[35.365983457867905,33.416823132241106],[35.367207491879014,33.46188324268925],[35.31344598768939,33.46289868493381],[35.31224969152873,33.41783684910502]]]},"properties":{"id":"lbn-satlas-5km-715000-3700000","evidence_status":"screened","candidate_count":1,"corroborated_candidate_count":0,"candidate_footprint_area_m2":2600.144,"governorates":["South Lebanon"],"region_groups":["South"],"source_snapshot":"2024-01","review_imagery_date":"2024-03-30","review_imagery_resolution_m":10,"grid_size_m":5000}},{"type":"Feature","id":"lbn-satlas-5km-715000-3705000","geometry":{"type":"Polygon","coordinates":[[[35.31344598768939,33.46289868493381],[35.367207491879014,33.46188324268925],[35.36843425193356,33.50694298539121],[35.31464494821374,33.507960154767005],[35.31344598768939,33.46289868493381]]]},"properties":{"id":"lbn-satlas-5km-715000-3705000","evidence_status":"screened","candidate_count":2,"corroborated_candidate_count":0,"candidate_footprint_area_m2":8836.996,"governorates":["South Lebanon"],"region_groups":["South"],"source_snapshot":"2024-01","review_imagery_date":"2024-03-30","review_imagery_resolution_m":10,"grid_size_m":5000}},{"type":"Feature","id":"lbn-satlas-5km-720000-3680000","geometry":{"type":"Polygon","coordinates":[[[35.36111446827757,33.236579019497974],[35.41473519977773,33.2355490993193],[35.415975873335476,33.2806089197042],[35.36232765505686,33.28164059767399],[35.36111446827757,33.236579019497974]]]},"properties":{"id":"lbn-satlas-5km-720000-3680000","evidence_status":"screened","candidate_count":1,"corroborated_candidate_count":0,"candidate_footprint_area_m2":1783.359,"governorates":["An Nabatiyah"],"region_groups":["South"],"source_snapshot":"2024-01","review_imagery_date":"2024-03-30","review_imagery_resolution_m":10,"grid_size_m":5000}},{"type":"Feature","id":"lbn-satlas-5km-725000-3680000","geometry":{"type":"Polygon","coordinates":[[[35.41473519977773,33.2355490993193],[35.46835317259145,33.23449609567149],[35.46962132716408,33.27955411891035],[35.415975873335476,33.2806089197042],[35.41473519977773,33.2355490993193]]]},"properties":{"id":"lbn-satlas-5km-725000-3680000","evidence_status":"screened","candidate_count":1,"corroborated_candidate_count":0,"candidate_footprint_area_m2":3695.129,"governorates":["An Nabatiyah"],"region_groups":["South"],"source_snapshot":"2024-01","review_imagery_date":"2024-03-30","review_imagery_resolution_m":10,"grid_size_m":5000}},{"type":"Feature","id":"lbn-satlas-5km-725000-3690000","geometry":{"type":"Polygon","coordinates":[[[35.41721931134648,33.32566837187592],[35.47089230731849,33.32461177212583],[35.472166118965156,33.36966905498136],[35.418465519593866,33.37072745550286],[35.41721931134648,33.32566837187592]]]},"properties":{"id":"lbn-satlas-5km-725000-3690000","evidence_status":"corroborated","candidate_count":1,"corroborated_candidate_count":1,"candidate_footprint_area_m2":1207.639,"governorates":["An Nabatiyah"],"region_groups":["South"],"source_snapshot":"2024-01","review_imagery_date":"2024-03-30","review_imagery_resolution_m":10,"grid_size_m":5000}},{"type":"Feature","id":"lbn-satlas-5km-730000-3750000","geometry":{"type":"Polygon","coordinates":[[[35.486366636186766,33.865274626839046],[35.54037204869129,33.86417266270094],[35.54170864902156,33.909223612296536],[35.4876748941334,33.91032743929159],[35.486366636186766,33.865274626839046]]]},"properties":{"id":"lbn-satlas-5km-730000-3750000","evidence_status":"corroborated","candidate_count":1,"corroborated_candidate_count":1,"candidate_footprint_area_m2":6999.851,"governorates":["Beirut"],"region_groups":["Beirut and Mount Lebanon"],"source_snapshot":"2024-01","review_imagery_date":"2024-03-30","review_imagery_resolution_m":10,"grid_size_m":5000}},{"type":"Feature","id":"lbn-satlas-5km-760000-3730000","geometry":{"type":"Polygon","coordinates":[[[35.80447322949027,33.67814047725732],[35.85834731519736,33.67690518958722],[35.8598405025939,33.72194567692378],[35.80593836421251,33.72318305805711],[35.80447322949027,33.67814047725732]]]},"properties":{"id":"lbn-satlas-5km-760000-3730000","evidence_status":"screened","candidate_count":1,"corroborated_candidate_count":0,"candidate_footprint_area_m2":10347.062,"governorates":["Beqaa"],"region_groups":["Beqaa"],"source_snapshot":"2024-01","review_imagery_date":"2024-03-30","review_imagery_resolution_m":10,"grid_size_m":5000}},{"type":"Feature","id":"lbn-satlas-5km-760000-3740000","geometry":{"type":"Polygon","coordinates":[[[35.80740675861053,33.76822525347324],[35.8613370119331,33.766985776732746],[35.862836850249195,33.81202548864294],[35.80887841958743,33.81326706314047],[35.80740675861053,33.76822525347324]]]},"properties":{"id":"lbn-satlas-5km-760000-3740000","evidence_status":"screened","candidate_count":1,"corroborated_candidate_count":0,"candidate_footprint_area_m2":3965.568,"governorates":["Beqaa"],"region_groups":["Beqaa"],"source_snapshot":"2024-01","review_imagery_date":"2024-03-30","review_imagery_resolution_m":10,"grid_size_m":5000}},{"type":"Feature","id":"lbn-satlas-5km-760000-3800000","geometry":{"type":"Polygon","coordinates":[[[35.825284282545745,34.308701405953705],[35.87955682015693,34.30743661251833],[35.88109716367958,34.35247164081467],[35.82679568956196,34.35373855827595],[35.825284282545745,34.308701405953705]]]},"properties":{"id":"lbn-satlas-5km-760000-3800000","evidence_status":"screened","candidate_count":3,"corroborated_candidate_count":0,"candidate_footprint_area_m2":10626.828,"governorates":["North Lebanon"],"region_groups":["North"],"source_snapshot":"2024-01","review_imagery_date":"2024-03-30","review_imagery_resolution_m":10,"grid_size_m":5000}},{"type":"Feature","id":"lbn-satlas-5km-765000-3750000","geometry":{"type":"Polygon","coordinates":[[[35.86434002460035,33.857064812283504],[35.91832335201763,33.855797535846605],[35.91985816491008,33.900834328942],[35.8658465420688,33.902103747283945],[35.86434002460035,33.857064812283504]]]},"properties":{"id":"lbn-satlas-5km-765000-3750000","evidence_status":"screened","candidate_count":1,"corroborated_candidate_count":0,"candidate_footprint_area_m2":1507.165,"governorates":["Beqaa"],"region_groups":["Beqaa"],"source_snapshot":"2024-01","review_imagery_date":"2024-03-30","review_imagery_resolution_m":10,"grid_size_m":5000}},{"type":"Feature","id":"lbn-satlas-5km-770000-3740000","geometry":{"type":"Polygon","coordinates":[[[35.91526393628278,33.76572277750463],[35.96918746928558,33.764436260680135],[35.97074364097412,33.8094716578405],[35.91679194487991,33.81076035190862],[35.91526393628278,33.76572277750463]]]},"properties":{"id":"lbn-satlas-5km-770000-3740000","evidence_status":"screened","candidate_count":1,"corroborated_candidate_count":0,"candidate_footprint_area_m2":2013.836,"governorates":["Beqaa"],"region_groups":["Beqaa"],"source_snapshot":"2024-01","review_imagery_date":"2024-03-30","review_imagery_resolution_m":10,"grid_size_m":5000}},{"type":"Feature","id":"lbn-satlas-5km-780000-3750000","geometry":{"type":"Polygon","coordinates":[[[36.0262797269875,33.85319219664331],[36.08025264933958,33.851854143979146],[36.08187230454271,33.89688427249646],[36.02787110887952,33.89822458648502],[36.0262797269875,33.85319219664331]]]},"properties":{"id":"lbn-satlas-5km-780000-3750000","evidence_status":"screened","candidate_count":1,"corroborated_candidate_count":0,"candidate_footprint_area_m2":1288.492,"governorates":["Beqaa"],"region_groups":["Beqaa"],"source_snapshot":"2024-01","review_imagery_date":"2024-03-30","review_imagery_resolution_m":10,"grid_size_m":5000}},{"type":"Feature","id":"lbn-satlas-5km-785000-3750000","geometry":{"type":"Polygon","coordinates":[[[36.08025264933958,33.851854143979146],[36.13422197817824,33.850492509492796],[36.135869899057255,33.8955203369039],[36.08187230454271,33.89688427249646],[36.08025264933958,33.851854143979146]]]},"properties":{"id":"lbn-satlas-5km-785000-3750000","evidence_status":"screened","candidate_count":1,"corroborated_candidate_count":0,"candidate_footprint_area_m2":4868.393,"governorates":["Beqaa"],"region_groups":["Beqaa"],"source_snapshot":"2024-01","review_imagery_date":"2024-03-30","review_imagery_resolution_m":10,"grid_size_m":5000}},{"type":"Feature","id":"lbn-satlas-5km-785000-3765000","geometry":{"type":"Polygon","coordinates":[[[36.085122426069276,33.98694333486955],[36.1391767400731,33.985574789944074],[36.140835675823936,34.03060141477022],[36.08675290774141,34.03197226793557],[36.085122426069276,33.98694333486955]]]},"properties":{"id":"lbn-satlas-5km-785000-3765000","evidence_status":"screened","candidate_count":1,"corroborated_candidate_count":0,"candidate_footprint_area_m2":1534.469,"governorates":["Beqaa"],"region_groups":["Beqaa"],"source_snapshot":"2024-01","review_imagery_date":"2024-03-30","review_imagery_resolution_m":10,"grid_size_m":5000}},{"type":"Feature","id":"lbn-satlas-5km-785000-3775000","geometry":{"type":"Polygon","coordinates":[[[36.08838701362894,34.07700080172851],[36.14249829885715,34.075627637932186],[36.144164617046506,34.1206534590291],[36.09002475147186,34.122028935854146],[36.08838701362894,34.07700080172851]]]},"properties":{"id":"lbn-satlas-5km-785000-3775000","evidence_status":"screened","candidate_count":1,"corroborated_candidate_count":0,"candidate_footprint_area_m2":2937.695,"governorates":["Beqaa"],"region_groups":["Beqaa"],"source_snapshot":"2024-01","review_imagery_date":"2024-03-30","review_imagery_resolution_m":10,"grid_size_m":5000}},{"type":"Feature","id":"lbn-satlas-5km-805000-3790000","geometry":{"type":"Polygon","coordinates":[[[36.310077451854056,34.2064202100593],[36.36425941116827,34.20494454980128],[36.36605186418778,34.24995948041396],[36.311841166858066,34.25143762124258],[36.310077451854056,34.2064202100593]]]},"properties":{"id":"lbn-satlas-5km-805000-3790000","evidence_status":"screened","candidate_count":1,"corroborated_candidate_count":0,"candidate_footprint_area_m2":5829.104,"governorates":["Beqaa"],"region_groups":["Beqaa"],"source_snapshot":"2024-01","review_imagery_date":"2024-03-30","review_imagery_resolution_m":10,"grid_size_m":5000}}]}
